GLOBALSTAR M001         
1 25162U 98008A   25271.78577856 -.00000037  00000+0  45496-3 0  9992
2 25162  52.0056  31.6877 0002160 111.3180  54.1654 12.38218554256548
GLOBALSTAR M004         
1 25163U 98008B   25271.88979109 -.00000081  00000+0  12802-3 0  9995
2 25163  51.9990  97.7774 0003521 146.8042   2.5305 12.63404172274793
GLOBALSTAR M002         
1 25164U 98008C   25272.20854723 -.00000069  00000+0  15269-3 0  9993
2 25164  52.0046 339.3894 0001099 346.9361  13.1430 11.61511820196157
GLOBALSTAR M003         
1 25165U 98008D   25272.29193362 -.00000170  00000+0 -85384-3 0  9997
2 25165  51.9935 240.1922 0008058 138.3303   2.5563 12.12058441245847
GLOBALSTAR M014         
1 25306U 98023A   25272.24401932 -.00000046  00000+0  59895-3 0  9990
2 25306  51.9822 260.3358 0000706 179.8698 253.8003 11.65482113203304
GLOBALSTAR M006         
1 25307U 98023B   25271.44603973 -.00000059  00000+0  34329-3 0  9990
2 25307  51.9959 318.6879 0002836 291.9845 169.4211 11.58176110228799
GLOBALSTAR M015         
1 25308U 98023C   25271.59061302 -.00000092  00000+0 -41789-3 0  9997
2 25308  51.9830  61.5315 0011751 258.4863 181.2238 11.48858863205967
GLOBALSTAR M008         
1 25309U 98023D   25271.89034486 -.00000037  00000+0  46685-3 0  9992
2 25309  51.9955 257.3921 0002955  36.2886 339.3618 12.36073265250676
